ONEWEB-0549             
1 56051U 23043F   24154.16101747  .00000099  00000+0  20840-3 0  9996
2 56051  87.9306  32.2869 0002041  81.8618 278.2748 13.21825161 59801
ONEWEB-0550             
1 56052U 23043G   24154.37548940  .00000079  00000+0  15862-3 0  9996
2 56052  87.9301  32.2524 0001888  88.0898 272.0452 13.21825617 59835
ONEWEB-0551             
1 56053U 23043H   24154.40188475  .00000103  00000+0  24081-3 0  9995
2 56053  87.9055  47.4482 0002128  80.8382 279.2989 13.15548989 58479
ONEWEB-0552             
1 56054U 23043J   24154.36917211  .00000103  00000+0  21758-3 0  9997
2 56054  87.9301  32.2637 0002053  91.1139 269.0230 13.21824029 59836
ONEWEB-0553             
1 56055U 23043K   24154.33572738 -.00000007  00000+0 -51366-4 0  9990
2 56055  87.9116  17.0591 0001653  72.1565 287.9746 13.16593647 60968
ONEWEB-0554             
1 56056U 23043L   24154.32305613  .00000057  00000+0  11524-3 0  9990
2 56056  87.9120  17.0827 0001733 105.9448 254.1874 13.16592353 60949
ONEWEB-0555             
1 56057U 23043M   24154.51305121  .00000056  00000+0  11394-3 0  9990
2 56057  87.9116  17.0172 0001208  70.9324 289.1938 13.16592802 60970
ONEWEB-0557             
1 56058U 23043N   24154.52729754  .00000136  00000+0  32256-3 0  9993
2 56058  87.9115  17.0400 0000734  85.3738 274.7477 13.16592900 60973
